0 SL-8 R/B
1 14625U 84003B   13283.17249008  .00000089  00000-0  78681-4 0  2478
2 14625 082.9236 285.3232 0020846 231.9667 175.7293 13.74198253491471
0 SL-8 R/B
1 14625U 84003B   13285.51643458  .00000079  00000-0  67529-4 0  2484
2 14625 082.9234 283.5844 0020960 225.1623 251.7673 13.74198888491798
0 SL-8 R/B
1 14625U 84003B   13287.63202392  .00000099  00000-0  89623-4 0  2499
2 14625 082.9235 282.0147 0021101 219.0786 278.0268 13.74199655492087
0 SL-8 R/B
1 14625U 84003B   13290.08853383  .00000084  00000-0  73202-4 0  2506
2 14625 082.9240 280.1921 0021171 212.0108 190.9003 13.74200062492422
0 SL-8 R/B
1 14625U 84003B   13292.12828356  .00000012  00000-0 -35638-5 0  2510
2 14625 082.9244 278.6788 0021341 206.2536 201.8595 13.74199325492706
0 SL-8 R/B
1 14625U 84003B   13294.47939292  .00000074  00000-0  62286-4 0  2528
2 14625 082.9246 276.9349 0021459 199.5765 313.2051 13.74199478493020
0 SL-8 R/B
1 14625U 84003B   13296.13324902  .00000170  00000-0  16422-3 0  2537
2 14625 082.9247 275.7082 0021630 195.0514 214.9503 13.74200385493250
